[{"OBJECT_NAME":"GAOFEN-2","OBJECT_ID":"2014-049A","EPOCH":"2026-03-09T23:35:46.910976","MEAN_MOTION":14.80770566,"ECCENTRICITY":0.00070783,"INCLINATION":98.0218,"RA_OF_ASC_NODE":133.2442,"ARG_OF_PERICENTER":184.3502,"MEAN_ANOMALY":175.765,"EPHEMERIS_TYPE":0,"CLASSIFICATION_TYPE":"U","NORAD_CAT_ID":40118,"ELEMENT_SET_NO":999,"REV_AT_EPOCH":62455,"BSTAR":6.8905409e-5,"MEAN_MOTION_DOT":4.77e-6,"MEAN_MOTION_DDOT":0},{"OBJECT_NAME":"CZ-2D R\/B","OBJECT_ID":"2013-018E","EPOCH":"2026-03-09T22:07:02.756352","MEAN_MOTION":14.813709,"ECCENTRICITY":0.00175607,"INCLINATION":98.4225,"RA_OF_ASC_NODE":36.6435,"ARG_OF_PERICENTER":13.9379,"MEAN_ANOMALY":346.2313,"EPHEMERIS_TYPE":0,"CLASSIFICATION_TYPE":"U","NORAD_CAT_ID":39154,"ELEMENT_SET_NO":999,"REV_AT_EPOCH":69341,"BSTAR":0.00023383989,"MEAN_MOTION_DOT":1.773e-5,"MEAN_MOTION_DDOT":0}]
